NORAD_CAT_ID,OBJECT_NAME,OBJECT_TYPE,EPOCH,MEAN_MOTION,ECCENTRICITY,INCLINATION,RA_OF_ASC_NODE,ARG_OF_PERICENTER,MEAN_ANOMALY,BSTAR,MEAN_MOTION_DOT,MEAN_MOTION_DDOT,TLE_LINE0,TLE_LINE1,TLE_LINE2,SEMIMAJOR_AXIS,PERIOD,APOGEE,PERIGEE,DECAYED
55927.0,STARLINK-5919,PAYLOAD,2024-02-18 09:37:13,14.98334854,0.0002556,70.0009,36.1009,263.6835,96.4033,6.507e-05,6.84e-06,0.0,0 STARLINK-5919,1 55927U 23037P   24049.40084777  .00000684  00000-0  65070-4 0  9999,2 55927  70.0009  36.1009 0002556 263.6835  96.4033 14.98334854 51444,6950.178,96.107,573.819,570.266,0.0
55927.0,STARLINK-5919,PAYLOAD,2024-02-18 16:01:45,14.98332836,0.0002754,70.0009,35.4275,268.5634,91.521,3.4856e-05,3.23e-06,0.0,0 STARLINK-5919,1 55927U 23037P   24049.66788905  .00000323  00000-0  34856-4 0  9999,2 55927  70.0009  35.4275 0002754 268.5634  91.5210 14.98332836 51140,6950.184,96.107,573.963,570.135,0.0
55927.0,STARLINK-5919,PAYLOAD,2024-02-19 09:39:14,14.98333703,0.0002716,70.001,33.5761,267.9443,92.1405,4.5478e-05,4.5e-06,0.0,0 STARLINK-5919,1 55927U 23037P   24050.40224684  .00000450  00000-0  45478-4 0  9995,2 55927  70.0010  33.5761 0002716 267.9443  92.1405 14.98333703 51596,6950.181,96.107,573.934,570.159,0.0
55927.0,STARLINK-5919,PAYLOAD,2024-02-19 16:03:47,14.98325905,0.0002085,70.0004,32.9017,274.9431,85.149,-0.00011739,-1.493e-05,0.0,0 STARLINK-5919,1 55927U 23037P   24050.66929893 -.00001493  00000-0 -11739-3 0  9999,2 55927  70.0004  32.9017 0002085 274.9431  85.1490 14.98325905 51636,6950.206,96.107,573.52,570.621,0.0
55927.0,STARLINK-5919,PAYLOAD,2024-02-19 22:28:19,14.9831441,0.0003188,70.0023,32.2266,272.4192,87.6602,0.00014797,1.672e-05,0.0,0 STARLINK-5919,1 55927U 23037P   24050.93633553  .00001672  00000-0  14797-3 0  9998,2 55927  70.0023  32.2266 0003188 272.4192  87.6602 14.98314410 51336,6950.241,96.108,574.322,569.89,0.0
55927.0,STARLINK-5919,PAYLOAD,2024-02-20 08:05:07,14.98323778,0.0002775,70.0012,31.2196,267.9943,92.0899,-6.9647e-05,-9.24e-06,0.0,0 STARLINK-5919,1 55927U 23037P   24051.33689796 -.00000924  00000-0 -69647-4 0  9999,2 55927  70.0012  31.2196 0002775 267.9943  92.0899 14.98323778 51390,6950.212,96.107,574.006,570.148,0.0
55927.0,STARLINK-5919,PAYLOAD,2024-02-20 16:05:48,14.98331469,0.000277,70.0009,30.3773,278.0131,82.0714,-7.9243e-05,-1.038e-05,0.0,0 STARLINK-5919,1 55927U 23037P   24051.67069468 -.00001038  00000-0 -79243-4 0  9994,2 55927  70.0009  30.3773 0002770 278.0131  82.0714 14.98331469 51788,6950.188,96.107,573.979,570.128,0.0
55927.0,STARLINK-5919,PAYLOAD,2024-02-20 22:30:20,14.98328904,0.0003002,70.0006,29.7044,269.3767,90.7048,5.1217e-05,5.18e-06,0.0,0 STARLINK-5919,1 55927U 23037P   24051.93773195  .00000518  00000-0  51217-4 0  9993,2 55927  70.0006  29.7044 0003002 269.3767  90.7048 14.98328904 51488,6950.196,96.107,574.148,569.975,0.0
55927.0,STARLINK-5919,PAYLOAD,2024-02-21 04:54:51,14.98335446,0.0003003,70.0007,29.0307,268.1096,91.9719,6.5328e-05,6.87e-06,0.0,0 STARLINK-5919,1 55927U 23037P   24052.20476734  .00000687  00000-0  65328-4 0  9998,2 55927  70.0007  29.0307 0003003 268.1096  91.9719 14.98335446 51866,6950.176,96.107,574.128,569.954,0.0
55927.0,STARLINK-5919,PAYLOAD,2024-02-21 08:07:07,14.98336912,0.0002954,70.0008,28.6942,268.2672,91.8149,9.0717e-05,9.9e-06,0.0,0 STARLINK-5919,1 55927U 23037P   24052.33828553  .00000990  00000-0  90717-4 0  9999,2 55927  70.0008  28.6942 0002954 268.2672  91.8149 14.98336912 51542,6950.172,96.107,574.09,569.983,0.0
55927.0,STARLINK-5919,PAYLOAD,2024-02-21 16:07:48,14.9832347,0.0002854,70.001,27.8519,260.3473,99.7364,0.00015638,1.773e-05,0.0,0 STARLINK-5919,1 55927U 23037P   24052.67209180  .00001773  00000-0  15638-3 0  9993,2 55927  70.0010  27.8519 0002854 260.3473  99.7364 14.98323470 51931,6950.213,96.107,574.062,570.094,0.0
55927.0,STARLINK-5919,PAYLOAD,2024-02-21 22:32:20,14.98332259,0.0002911,70.0009,27.1787,269.5866,90.4959,-2.5578e-05,-3.98e-06,0.0,0 STARLINK-5919,1 55927U 23037P   24052.93913125 -.00000398  00000-0 -25578-4 0  9992,2 55927  70.0009  27.1787 0002911 269.5866  90.4959 14.98332259 51630,6950.186,96.107,574.074,570.028,0.0
55927.0,STARLINK-5919,PAYLOAD,2024-02-22 08:09:09,14.98329459,0.0003025,70.0009,26.1695,268.9043,91.177,0.00011091,1.231e-05,0.0,0 STARLINK-5919,1 55927U 23037P   24053.33969020  .00001231  00000-0  11091-3 0  9991,2 55927  70.0009  26.1695 0003025 268.9043  91.1770 14.98329459 51697,6950.195,96.107,574.162,569.957,0.0
55927.0,STARLINK-5919,PAYLOAD,2024-02-22 22:34:21,14.9832839,0.0003232,70.001,24.6546,268.5094,91.5695,8.6364e-05,9.38e-06,0.0,0 STARLINK-5919,1 55927U 23037P   24053.94053031  .00000938  00000-0  86364-4 0  9993,2 55927  70.0010  24.6546 0003232 268.5094  91.5695 14.98328390 51782,6950.198,96.107,574.309,569.817,0.0
55927.0,STARLINK-5919,PAYLOAD,2024-02-23 01:46:37,14.98329819,0.0003227,70.0011,24.3179,268.4755,91.6035,9.9722e-05,1.097e-05,0.0,0 STARLINK-5919,1 55927U 23037P   24054.07404902  .00001097  00000-0  99722-4 0  9994,2 55927  70.0011  24.3179 0003227 268.4755  91.6035 14.98329819 52146,6950.193,96.107,574.301,569.816,0.0
55927.0,STARLINK-5919,PAYLOAD,2024-02-23 08:11:09,14.98341545,0.0002964,70.0011,23.6446,269.8365,90.2454,5.2268e-05,5.31e-06,0.0,0 STARLINK-5919,1 55927U 23037P   24054.34108221  .00000531  00000-0  52268-4 0  9995,2 55927  70.0011  23.6446 0002964 269.8365  90.2454 14.98341545 52188,6950.157,96.106,574.082,569.962,0.0
55927.0,STARLINK-5919,PAYLOAD,2024-02-23 14:35:42,14.98333401,0.0002791,70.0016,22.9717,267.1176,92.9664,-3.4568e-05,-5.05e-06,0.0,0 STARLINK-5919,1 55927U 23037P   24054.60812878 -.00000505  00000-0 -34568-4 0  9990,2 55927  70.0016  22.9717 0002791 267.1176  92.9664 14.98333401 51885,6950.182,96.107,573.987,570.108,0.0
55927.0,STARLINK-5919,PAYLOAD,2024-02-23 21:00:14,14.98327405,0.0002783,70.0017,22.2989,269.5422,90.5418,2.0676e-05,1.54e-06,0.0,0 STARLINK-5919,1 55927U 23037P   24054.87517093  .00000154  00000-0  20676-4 0  9993,2 55927  70.0017  22.2989 0002783 269.5422  90.5418 14.98327405 52262,6950.201,96.107,574.0,570.132,0.0
55927.0,STARLINK-5919,PAYLOAD,2024-02-23 22:36:22,14.98326202,0.0002823,70.0016,22.1305,271.3418,88.7418,5.499e-06,-2.7e-07,0.0,0 STARLINK-5919,1 55927U 23037P   24054.94193218 -.00000027  00000-0  54990-5 0  9997,2 55927  70.0016  22.1305 0002823 271.3418  88.7418 14.98326202 51939,6950.205,96.107,574.032,570.108,0.0
55927.0,STARLINK-5919,PAYLOAD,2024-02-24 14:37:42,14.98380363,0.0002965,70.002,20.447,276.0946,83.9875,-0.00084761,-0.00010205,0.0,0 STARLINK-5919,1 55927U 23037P   24055.60951546 -.00010205  00000-0 -84761-3 0  9994,2 55927  70.0020  20.4470 0002965 276.0946  83.9875 14.98380363 52037,6950.037,96.104,573.963,569.841,0.0
55927.0,STARLINK-5919,PAYLOAD,2024-02-24 21:02:15,14.98325291,0.0002502,70.002,19.7738,265.0149,95.0724,0.00013223,1.485e-05,0.0,0 STARLINK-5919,1 55927U 23037P   24055.87656856  .00001485  00000-0  13223-3 0  9992,2 55927  70.0020  19.7738 0002502 265.0149  95.0724 14.98325291 52075,6950.207,96.107,573.811,570.334,0.0
55927.0,STARLINK-5919,PAYLOAD,2024-02-25 05:02:55,14.98330095,0.0002461,70.0026,18.9313,268.1234,91.9643,0.00012637,1.415e-05,0.0,0 STARLINK-5919,1 55927U 23037P   24056.21036651  .00001415  00000-0  12637-3 0  9997,2 55927  70.0026  18.9313 0002461 268.1234  91.9643 14.98330095 52460,6950.193,96.107,573.768,570.347,0.0
55927.0,STARLINK-5919,PAYLOAD,2024-02-25 14:39:44,14.98332619,0.0002302,70.0033,17.9219,294.8201,65.2718,-7.7479e-05,-1.017e-05,0.0,0 STARLINK-5919,1 55927U 23037P   24056.61093150 -.00001017  00000-0 -77479-4 0  9994,2 55927  70.0033  17.9219 0002302 294.8201  65.2718 14.98332619 52186,6950.185,96.107,573.65,570.45,0.0
55927.0,STARLINK-5919,PAYLOAD,2024-02-25 22:40:24,14.98328104,0.0002712,70.0027,17.0814,271.0059,89.079,1.3557e-05,6.9e-07,0.0,0 STARLINK-5919,1 55927U 23037P   24056.94472929  .00000069  00000-0  13557-4 0  9996,2 55927  70.0027  17.0814 0002712 271.0059  89.0790 14.98328104 52238,6950.199,96.107,573.949,570.179,0.0
55927.0,STARLINK-5919,PAYLOAD,2024-02-26 06:41:04,14.98331182,0.0002599,70.0023,16.2381,272.2536,87.8325,-1.6342e-05,-2.88e-06,0.0,0 STARLINK-5919,1 55927U 23037P   24057.27852816 -.00000288  00000-0 -16342-4 0  9990,2 55927  70.0023  16.2381 0002599 272.2536  87.8325 14.98331182 52623,6950.189,96.107,573.861,570.248,0.0
55927.0,STARLINK-5919,PAYLOAD,2024-02-26 22:42:25,14.98327348,0.0002755,70.0021,14.556,270.018,90.0663,6.6782e-06,-1.3e-07,0.0,0 STARLINK-5919,1 55927U 23037P   24057.94612991 -.00000013  00000-0  66782-5 0  9991,2 55927  70.0021  14.5560 0002755 270.0180  90.0663 14.98327348 52389,6950.201,96.107,573.981,570.151,0.0
55927.0,STARLINK-5919,PAYLOAD,2024-02-27 06:43:05,14.98332364,0.0002524,70.0024,13.7139,272.7372,87.3498,-4.2773e-05,-6.03e-06,0.0,0 STARLINK-5919,1 55927U 23037P   24058.27992956 -.00000603  00000-0 -42773-4 0  9999,2 55927  70.0024  13.7139 0002524 272.7372  87.3498 14.98332364 52773,6950.186,96.107,573.805,570.296,0.0
55927.0,STARLINK-5919,PAYLOAD,2024-02-27 14:43:46,14.98331416,0.0002764,70.0025,12.8726,267.5782,92.506,-4.699e-05,-6.54e-06,0.0,0 STARLINK-5919,1 55927U 23037P   24058.61372880 -.00000654  00000-0 -46990-4 0  9996,2 55927  70.0025  12.8726 0002764 267.5782  92.5060 14.98331416 52487,6950.189,96.107,573.975,570.132,0.0
55927.0,STARLINK-5919,PAYLOAD,2024-02-27 22:44:26,14.98329417,0.000274,70.0019,12.0313,273.4927,86.5919,6.3683e-05,6.67e-06,0.0,0 STARLINK-5919,1 55927U 23037P   24058.94752792  .00000667  00000-0  63683-4 0  9996,2 55927  70.0019  12.0313 0002740 273.4927  86.5919 14.98329417 52535,6950.195,96.107,573.964,570.155,0.0
55927.0,STARLINK-5919,PAYLOAD,2024-02-28 06:45:06,14.98334089,0.0002791,70.0014,11.1889,269.9974,90.0866,5.5531e-05,5.7e-06,0.0,0 STARLINK-5919,1 55927U 23037P   24059.28132466  .00000570  00000-0  55531-4 0  9990,2 55927  70.0014  11.1889 0002791 269.9974  90.0866 14.98334089 52921,6950.18,96.107,573.985,570.105,0.0
